CCSDS_OMM_VERS = 2.0
CREATION_DATE  = 
ORIGINATOR     = 

OBJECT_NAME    = STARLINK-36904
OBJECT_ID      = 2026-038S
CENTER_NAME    = EARTH
REF_FRAME      = TEME
TIME_SYSTEM    = UTC
MEAN_ELEMENT_THEORY = SGP/SGP4

EPOCH          = 2026-03-18T12:00:02.998944
MEAN_MOTION    = 15.67881636
ECCENTRICITY   = .0001718
INCLINATION    = 97.2849
RA_OF_ASC_NODE = 88.2724
ARG_OF_PERICENTER = 73.4806
MEAN_ANOMALY   = 11.3956

EPHEMERIS_TYPE = 0
CLASSIFICATION_TYPE = U
NORAD_CAT_ID   = 67977
ELEMENT_SET_NO = 999
REV_AT_EPOCH   = 461
BSTAR          = -.24085E-1
MEAN_MOTION_DOT = -.2287364E-1
MEAN_MOTION_DDOT = 0

CCSDS_OMM_VERS = 2.0
CREATION_DATE  = 
ORIGINATOR     = 

OBJECT_NAME    = STARLINK-36364
OBJECT_ID      = 2026-038T
CENTER_NAME    = EARTH
REF_FRAME      = TEME
TIME_SYSTEM    = UTC
MEAN_ELEMENT_THEORY = SGP/SGP4

EPOCH          = 2026-03-18T09:56:10.603104
MEAN_MOTION    = 15.74763452
ECCENTRICITY   = .0000975
INCLINATION    = 97.2868
RA_OF_ASC_NODE = 88.1965
ARG_OF_PERICENTER = 107.8060
MEAN_ANOMALY   = 252.3311

EPHEMERIS_TYPE = 0
CLASSIFICATION_TYPE = U
NORAD_CAT_ID   = 67978
ELEMENT_SET_NO = 999
REV_AT_EPOCH   = 456
BSTAR          = -.31397E-2
MEAN_MOTION_DOT = -.437083E-2
MEAN_MOTION_DDOT = 0

CCSDS_OMM_VERS = 2.0
CREATION_DATE  = 
ORIGINATOR     = 

OBJECT_NAME    = STARLINK-36359
OBJECT_ID      = 2026-038U
CENTER_NAME    = EARTH
REF_FRAME      = TEME
TIME_SYSTEM    = UTC
MEAN_ELEMENT_THEORY = SGP/SGP4

EPOCH          = 2026-03-18T12:00:02.998944
MEAN_MOTION    = 15.69823359
ECCENTRICITY   = .0001624
INCLINATION    = 97.2855
RA_OF_ASC_NODE = 88.2714
ARG_OF_PERICENTER = 72.2609
MEAN_ANOMALY   = 13.3747

EPHEMERIS_TYPE = 0
CLASSIFICATION_TYPE = U
NORAD_CAT_ID   = 67979
ELEMENT_SET_NO = 999
REV_AT_EPOCH   = 461
BSTAR          = -.22227E-1
MEAN_MOTION_DOT = -.2287539E-1
MEAN_MOTION_DDOT = 0

CCSDS_OMM_VERS = 2.0
CREATION_DATE  = 
ORIGINATOR     = 

OBJECT_NAME    = STARLINK-36882
OBJECT_ID      = 2026-038V
CENTER_NAME    = EARTH
REF_FRAME      = TEME
TIME_SYSTEM    = UTC
MEAN_ELEMENT_THEORY = SGP/SGP4

EPOCH          = 2026-03-18T12:00:02.998944
MEAN_MOTION    = 15.67158957
ECCENTRICITY   = .0001861
INCLINATION    = 97.2847
RA_OF_ASC_NODE = 88.2768
ARG_OF_PERICENTER = 77.1450
MEAN_ANOMALY   = 19.7864

EPHEMERIS_TYPE = 0
CLASSIFICATION_TYPE = U
NORAD_CAT_ID   = 67980
ELEMENT_SET_NO = 999
REV_AT_EPOCH   = 461
BSTAR          = -.24742E-1
MEAN_MOTION_DOT = -.2282203E-1
MEAN_MOTION_DDOT = 0

CCSDS_OMM_VERS = 2.0
CREATION_DATE  = 
ORIGINATOR     = 

OBJECT_NAME    = STARLINK-36874
OBJECT_ID      = 2026-038W
CENTER_NAME    = EARTH
REF_FRAME      = TEME
TIME_SYSTEM    = UTC
MEAN_ELEMENT_THEORY = SGP/SGP4

EPOCH          = 2026-03-18T11:26:07.090080
MEAN_MOTION    = 15.74850745
ECCENTRICITY   = .0002324
INCLINATION    = 97.2864
RA_OF_ASC_NODE = 88.2641
ARG_OF_PERICENTER = 60.5216
MEAN_ANOMALY   = 299.6281

EPHEMERIS_TYPE = 0
CLASSIFICATION_TYPE = U
NORAD_CAT_ID   = 67981
ELEMENT_SET_NO = 999
REV_AT_EPOCH   = 457
BSTAR          = -.26555E-2
MEAN_MOTION_DOT = -.373939E-2
MEAN_MOTION_DDOT = 0

CCSDS_OMM_VERS = 2.0
CREATION_DATE  = 
ORIGINATOR     = 

OBJECT_NAME    = STARLINK-36879
OBJECT_ID      = 2026-038X
CENTER_NAME    = EARTH
REF_FRAME      = TEME
TIME_SYSTEM    = UTC
MEAN_ELEMENT_THEORY = SGP/SGP4

EPOCH          = 2026-03-18T12:00:02.998944
MEAN_MOTION    = 15.52651621
ECCENTRICITY   = .0001159
INCLINATION    = 97.2853
RA_OF_ASC_NODE = 88.2253
ARG_OF_PERICENTER = 114.5120
MEAN_ANOMALY   = 207.3293

EPHEMERIS_TYPE = 0
CLASSIFICATION_TYPE = U
NORAD_CAT_ID   = 67982
ELEMENT_SET_NO = 999
REV_AT_EPOCH   = 461
BSTAR          = -.39962E-1
MEAN_MOTION_DOT = -.2175827E-1
MEAN_MOTION_DDOT = 0

CCSDS_OMM_VERS = 2.0
CREATION_DATE  = 
ORIGINATOR     = 

OBJECT_NAME    = STARLINK-36867
OBJECT_ID      = 2026-038Y
CENTER_NAME    = EARTH
REF_FRAME      = TEME
TIME_SYSTEM    = UTC
MEAN_ELEMENT_THEORY = SGP/SGP4

EPOCH          = 2026-03-18T12:00:02.998944
MEAN_MOTION    = 15.55795563
ECCENTRICITY   = .0001375
INCLINATION    = 97.2844
RA_OF_ASC_NODE = 88.2518
ARG_OF_PERICENTER = 83.1820
MEAN_ANOMALY   = 301.4136

EPHEMERIS_TYPE = 0
CLASSIFICATION_TYPE = U
NORAD_CAT_ID   = 67983
ELEMENT_SET_NO = 999
REV_AT_EPOCH   = 461
BSTAR          = -.37047E-1
MEAN_MOTION_DOT = -.225337E-1
MEAN_MOTION_DDOT = 0

CCSDS_OMM_VERS = 2.0
CREATION_DATE  = 
ORIGINATOR     = 

OBJECT_NAME    = STARLINK-36266
OBJECT_ID      = 2026-038Z
CENTER_NAME    = EARTH
REF_FRAME      = TEME
TIME_SYSTEM    = UTC
MEAN_ELEMENT_THEORY = SGP/SGP4

EPOCH          = 2026-03-18T11:22:01.093728
MEAN_MOTION    = 15.75147593
ECCENTRICITY   = .0002041
INCLINATION    = 97.2868
RA_OF_ASC_NODE = 88.2676
ARG_OF_PERICENTER = 79.3008
MEAN_ANOMALY   = 280.8486

EPHEMERIS_TYPE = 0
CLASSIFICATION_TYPE = U
NORAD_CAT_ID   = 67984
ELEMENT_SET_NO = 999
REV_AT_EPOCH   = 457
BSTAR          = .74504E-3
MEAN_MOTION_DOT = .112268E-2
MEAN_MOTION_DDOT = 0

CCSDS_OMM_VERS = 2.0
CREATION_DATE  = 
ORIGINATOR     = 

OBJECT_NAME    = STARLINK-36802
OBJECT_ID      = 2026-038AA
CENTER_NAME    = EARTH
REF_FRAME      = TEME
TIME_SYSTEM    = UTC
MEAN_ELEMENT_THEORY = SGP/SGP4

EPOCH          = 2026-03-18T11:18:26.580672
MEAN_MOTION    = 15.75222492
ECCENTRICITY   = .0001573
INCLINATION    = 97.2878
RA_OF_ASC_NODE = 88.2679
ARG_OF_PERICENTER = 97.0964
MEAN_ANOMALY   = 263.0480

EPHEMERIS_TYPE = 0
CLASSIFICATION_TYPE = U
NORAD_CAT_ID   = 67985
ELEMENT_SET_NO = 999
REV_AT_EPOCH   = 457
BSTAR          = .95324E-3
MEAN_MOTION_DOT = .14469E-2
MEAN_MOTION_DDOT = 0

CCSDS_OMM_VERS = 2.0
CREATION_DATE  = 
ORIGINATOR     = 

OBJECT_NAME    = STARLINK-36535
OBJECT_ID      = 2026-039A
CENTER_NAME    = EARTH
REF_FRAME      = TEME
TIME_SYSTEM    = UTC
MEAN_ELEMENT_THEORY = SGP/SGP4

EPOCH          = 2026-03-18T12:00:02.998944
MEAN_MOTION    = 15.65249365
ECCENTRICITY   = .0001334
INCLINATION    = 43.0002
RA_OF_ASC_NODE = 1.2463
ARG_OF_PERICENTER = 262.5941
MEAN_ANOMALY   = 219.6884

EPHEMERIS_TYPE = 0
CLASSIFICATION_TYPE = U
NORAD_CAT_ID   = 67986
ELEMENT_SET_NO = 999
REV_AT_EPOCH   = 429
BSTAR          = -.21908E-1
MEAN_MOTION_DOT = -.1970372E-1
MEAN_MOTION_DDOT = 0

CCSDS_OMM_VERS = 2.0
CREATION_DATE  = 
ORIGINATOR     = 

OBJECT_NAME    = STARLINK-36744
OBJECT_ID      = 2026-039B
CENTER_NAME    = EARTH
REF_FRAME      = TEME
TIME_SYSTEM    = UTC
MEAN_ELEMENT_THEORY = SGP/SGP4

EPOCH          = 2026-03-18T12:00:02.998944
MEAN_MOTION    = 15.66712084
ECCENTRICITY   = .0001283
INCLINATION    = 42.9999
RA_OF_ASC_NODE = 1.1844
ARG_OF_PERICENTER = 263.0936
MEAN_ANOMALY   = 243.7741

EPHEMERIS_TYPE = 0
CLASSIFICATION_TYPE = U
NORAD_CAT_ID   = 67987
ELEMENT_SET_NO = 999
REV_AT_EPOCH   = 429
BSTAR          = -.20582E-1
MEAN_MOTION_DOT = -.1965294E-1
MEAN_MOTION_DDOT = 0

CCSDS_OMM_VERS = 2.0
CREATION_DATE  = 
ORIGINATOR     = 

OBJECT_NAME    = STARLINK-36734
OBJECT_ID      = 2026-039C
CENTER_NAME    = EARTH
REF_FRAME      = TEME
TIME_SYSTEM    = UTC
MEAN_ELEMENT_THEORY = SGP/SGP4

EPOCH          = 2026-03-18T12:00:02.998944
MEAN_MOTION    = 15.50562689
ECCENTRICITY   = .0001761
INCLINATION    = 43.0001
RA_OF_ASC_NODE = 2.0915
ARG_OF_PERICENTER = 245.3602
MEAN_ANOMALY   = 255.4331

EPHEMERIS_TYPE = 0
CLASSIFICATION_TYPE = U
NORAD_CAT_ID   = 67988
ELEMENT_SET_NO = 999
REV_AT_EPOCH   = 429
BSTAR          = .19851E-3
MEAN_MOTION_DOT = .11314E-3
MEAN_MOTION_DDOT = 0

