STARLINK-36904          
1 67977U 26038S   26077.50003471 -.02287364  00000+0 -24085-1 0  9990
2 67977  97.2849  88.2724 0001718  73.4806  11.3956 15.67881636  4610
STARLINK-36364          
1 67978U 26038T   26077.41401161 -.00437083  00000+0 -31397-2 0  9997
2 67978  97.2868  88.1965 0000975 107.8060 252.3311 15.74763452  4565
STARLINK-36359          
1 67979U 26038U   26077.50003471 -.02287539  00000+0 -22227-1 0  9992
2 67979  97.2855  88.2714 0001624  72.2609  13.3747 15.69823359  4612
STARLINK-36882          
1 67980U 26038V   26077.50003471 -.02282203  00000+0 -24742-1 0  9991
2 67980  97.2847  88.2768 0001861  77.1450  19.7864 15.67158957  4618
STARLINK-36874          
1 67981U 26038W   26077.47647095 -.00373939  00000+0 -26555-2 0  9994
2 67981  97.2864  88.2641 0002324  60.5216 299.6281 15.74850745  4578
STARLINK-36879          
1 67982U 26038X   26077.50003471 -.02175827  00000+0 -39962-1 0  9996
2 67982  97.2853  88.2253 0001159 114.5120 207.3293 15.52651621  4617
STARLINK-36867          
1 67983U 26038Y   26077.50003471 -.02253370  00000+0 -37047-1 0  9999
2 67983  97.2844  88.2518 0001375  83.1820 301.4136 15.55795563  4619
STARLINK-36266          
1 67984U 26038Z   26077.47362377  .00112268  00000+0  74504-3 0  9996
2 67984  97.2868  88.2676 0002041  79.3008 280.8486 15.75147593  4576
STARLINK-36802          
1 67985U 26038AA  26077.47114098  .00144690  00000+0  95324-3 0  9999
2 67985  97.2878  88.2679 0001573  97.0964 263.0480 15.75222492  4577
STARLINK-36535          
1 67986U 26039A   26077.50003471 -.01970372  00000+0 -21908-1 0  9999
2 67986  43.0002   1.2463 0001334 262.5941 219.6884 15.65249365  4292
STARLINK-36744          
1 67987U 26039B   26077.50003471 -.01965294  00000+0 -20582-1 0  9994
2 67987  42.9999   1.1844 0001283 263.0936 243.7741 15.66712084  4295
STARLINK-36734          
1 67988U 26039C   26077.50003471  .00011314  00000+0  19851-3 0  9996
2 67988  43.0001   2.0915 0001761 245.3602 255.4331 15.50562689  4297
